SatCatId,ObjectName,LaunchYear,OrbitalPeriod,LaunchMass,StatusCode,Inclination,Status,UcsData,OrbitClassEstimated,LaunchSiteCountry,Owner,UseType,Purpose,LaunchVehicleClass,TLE1,TLE2,MeanMotion,Eccentricity,OrbitClass
51776,STARLINK-3608,2022,95.44,260.0,+,53.22,Active,1,LEO,USA,USA,Commercial,Communications,Falcon,1 51776U 22017J   23266.57474974  .00001456  00000+0  10954-3 0  9991,2 51776  53.2174  50.9129 0001219  85.1637 274.9494 15.08844880 86985,15.0884488,0.0001219,LEO
51777,STARLINK-3625,2022,95.44,260.0,+,53.22,Active,1,LEO,USA,USA,Commercial,Communications,Falcon,1 51777U 22017K   23266.57938555  .00001784  00000+0  13014-3 0  9996,2 51777  53.2174  50.8637 0001571  86.6057 273.5115 15.08846532 87018,15.08846532,0.0001571,LEO
51778,STARLINK-3615,2022,95.44,260.0,+,53.22,Active,1,LEO,USA,USA,Commercial,Communications,Falcon,1 51778U 22017L   23266.51677491  .00001812  00000+0  13187-3 0  9993,2 51778  53.2180  41.0464 0001105 102.3057 257.8059 15.08844451 86968,15.08844451,0.0001105,LEO
51779,STARLINK-3611,2022,95.44,260.0,+,53.22,Active,1,LEO,USA,USA,Commercial,Communications,Falcon,1 51779U 22017M   23266.70819479  .00001890  00000+0  13678-3 0  9990,2 51779  53.2193  50.3660 0001197  93.0733 267.0396 15.08841179 88493,15.08841179,0.0001197,LEO
51780,STARLINK-3617,2022,95.44,260.0,+,53.22,Active,1,LEO,USA,USA,Commercial,Communications,Falcon,1 51780U 22017N   23266.56098910  .00002723  00000+0  18906-3 0  9990,2 51780  53.2173  50.9768 0001136 102.3377 257.7742 15.08846590 86838,15.0884659,0.0001136,LEO
51781,STARLINK-3580,2022,95.44,260.0,+,53.22,Active,1,LEO,USA,USA,Commercial,Communications,Falcon,1 51781U 22017P   23266.56370693  .00001200  00000+0  93441-4 0  9999,2 51781  53.2178  50.9239 0001411  86.8900 273.2254 15.08846698 86831,15.08846698,0.0001411,LEO
51782,STARLINK-3616,2022,95.44,260.0,+,53.22,Active,1,LEO,USA,USA,Commercial,Communications,Falcon,1 51782U 22017Q   23266.45335100 -.00000448  00000+0 -10080-4 0  9995,2 51782  53.2182  61.4639 0001412  85.6496 274.4657 15.08842215 86589,15.08842215,0.0001412,LEO
51783,STARLINK-3628,2022,95.44,260.0,+,53.22,Active,1,LEO,USA,USA,Commercial,Communications,Falcon,1 51783U 22017R   23266.56835608 -.00000092  00000+0  12304-4 0  9991,2 51783  53.2176  50.9934 0001243  86.8193 273.2941 15.08841377 86832,15.08841377,0.0001243,LEO
51784,STARLINK-3632,2022,95.44,260.0,+,53.22,Active,1,LEO,USA,USA,Commercial,Communications,Falcon,1 51784U 22017S   23266.71367243  .00001236  00000+0  95744-4 0  9993,2 51784  53.2177  60.2899 0001275  94.2813 265.8325 15.08845762 88360,15.08845762,0.0001275,LEO
51785,STARLINK-3646,2022,95.44,260.0,+,53.22,Active,1,LEO,USA,USA,Commercial,Communications,Falcon,1 51785U 22017T   23266.56003449 -.00000189  00000+0  62420-5 0  9995,2 51785  53.2171  50.9814 0001275  74.4015 285.7117 15.08843016 86832,15.08843016,0.0001275,LEO
51786,STARLINK-3638,2022,95.44,260.0,+,53.22,Active,1,LEO,USA,USA,Commercial,Communications,Falcon,1 51786U 22017U   23266.57383454  .00000241  00000+0  33232-4 0  9990,2 51786  53.2171  60.9201 0001172  81.2844 278.8281 15.08838675 86690,15.08838675,0.0001172,LEO
51787,STARLINK-3619,2022,95.44,260.0,+,53.22,Active,1,LEO,USA,USA,Commercial,Communications,Falcon,1 51787U 22017V   23266.45607428  .00000202  00000+0  30747-4 0  9993,2 51787  53.2168  61.4468 0001014  65.9449 294.1649 15.08841827 86673,15.08841827,0.0001014,LEO
51788,STARLINK-3641,2022,95.44,260.0,+,53.22,Active,1,LEO,USA,USA,Commercial,Communications,Falcon,1 51788U 22017W   23266.69527235  .00001155  00000+0  90649-4 0  9992,2 51788  53.2165  60.3739 0001243  91.9626 268.1508 15.08843577 88356,15.08843577,0.0001243,LEO
51789,STARLINK-3639,2022,95.44,260.0,+,53.22,Active,1,LEO,USA,USA,Commercial,Communications,Falcon,1 51789U 22017X   23266.70999270  .00001875  00000+0  13587-3 0  9991,2 51789  53.2180  60.3050 0001347  97.7134 262.4011 15.08841568 88368,15.08841568,0.0001347,LEO
51790,STARLINK-3631,2022,95.44,260.0,+,53.22,Active,1,LEO,USA,USA,Commercial,Communications,Falcon,1 51790U 22017Y   23266.42663415  .00000910  00000+0  75224-4 0  9997,2 51790  53.2173  61.5820 0001164  84.4325 275.6800 15.08842450 88365,15.0884245,0.0001164,LEO
51791,STARLINK-3602,2022,95.44,260.0,+,53.22,Active,1,LEO,USA,USA,Commercial,Communications,Falcon,1 51791U 22017Z   23266.17271357  .00002125  00000+0  15157-3 0  9998,2 51791  53.2164  62.7180 0001258  97.9974 262.1161 15.08843444 88276,15.08843444,0.0001258,LEO
51792,STARLINK-3626,2022,95.44,260.0,+,53.22,Active,1,LEO,USA,USA,Commercial,Communications,Falcon,1 51792U 22017AA  23266.41927249  .00000313  00000+0  37742-4 0  9996,2 51792  53.2176  61.6142 0001364  88.2686 271.8462 15.08842536 88369,15.08842536,0.0001364,LEO
51793,STARLINK-3633,2022,95.44,260.0,+,53.22,Active,1,LEO,USA,USA,Commercial,Communications,Falcon,1 51793U 22017AB  23266.69895189  .00000138  00000+0  26763-4 0  9990,2 51793  53.2171  60.3584 0000861  86.6310 273.4781 15.08844950 88407,15.0884495,8.61e-05,LEO
51794,STARLINK-3573,2022,95.44,260.0,+,53.22,Active,1,LEO,USA,USA,Commercial,Communications,Falcon,1 51794U 22017AC  23266.14695224  .00001839  00000+0  13361-3 0  9997,2 51794  53.2169  62.8331 0001163  86.8567 273.2558 15.08844662 88279,15.08844662,0.0001163,LEO
51795,STARLINK-3586,2022,95.44,260.0,+,53.22,Active,1,LEO,USA,USA,Commercial,Communications,Falcon,1 51795U 22017AD  23266.58334491 -.00056533  00000+0 -35589-2 0  9990,2 51795  53.2156  60.9626 0001296  92.9524  53.5891 15.08872710  5745,15.0887271,0.0001296,LEO
51796,STARLINK-3630,2022,95.44,260.0,+,53.22,Active,1,LEO,USA,USA,Commercial,Communications,Falcon,1 51796U 22017AE  23266.73207320  .00000786  00000+0  67458-4 0  9997,2 51796  53.2177  60.2069 0001207  86.1911 273.9219 15.08844753 88356,15.08844753,0.0001207,LEO
51797,STARLINK-3627,2022,94.65,260.0,+,53.17,Active,1,LEO,USA,USA,Commercial,Communications,Falcon,1 51797U 22017AF  23266.75573037 -.00007045  00000+0 -29694-3 0  9997,2 51797  53.1710  39.5193 0000968  50.5656 309.5426 15.21291813 88703,15.21291813,9.68e-05,LEO
51798,STARLINK-3634,2022,95.44,260.0,+,53.22,Active,1,LEO,USA,USA,Commercial,Communications,Falcon,1 51798U 22017AG  23266.72839100  .00003296  00000+0  22502-3 0  9994,2 51798  53.2175  60.2228 0001157  73.0979 287.0140 15.08845781 88403,15.08845781,0.0001157,LEO
51799,STARLINK-3637,2022,95.44,260.0,+,53.22,Active,1,LEO,USA,USA,Commercial,Communications,Falcon,1 51799U 22017AH  23266.14327546  .00001283  00000+0  98681-4 0  9993,2 51799  53.2175  62.8503 0001365  77.4425 282.6720 15.08839420 88276,15.0883942,0.0001365,LEO
51800,STARLINK-3600,2022,91.33,260.0,+,53.21,Active,1,LEO,USA,USA,Commercial,Communications,Falcon,1 51800U 22017AJ  23266.55603501  .00003516  00000+0  25484-4 0  9991,2 51800  53.2140  32.1723 0000994  81.8886 278.2248 15.76716637 88783,15.76716637,9.94e-05,LEO
51801,STARLINK-3592,2022,95.44,260.0,+,53.22,Active,1,LEO,USA,USA,Commercial,Communications,Falcon,1 51801U 22017AK  23266.73575143 -.00000830  00000+0 -34075-4 0  9996,2 51801  53.2185  60.1931 0001230  89.4490 270.6643 15.08841586 88360,15.08841586,0.000123,LEO
51802,STARLINK-3557,2022,95.44,260.0,+,53.22,Active,1,LEO,USA,USA,Commercial,Communications,Falcon,1 51802U 22017AL  23266.42295286  .00001864  00000+0  13517-3 0  9993,2 51802  53.2174  61.5876 0001257  86.7872 273.3264 15.08844032 88318,15.08844032,0.0001257,LEO
51803,STARLINK-3544,2022,95.44,260.0,+,53.22,Active,1,LEO,USA,USA,Commercial,Communications,Falcon,1 51803U 22017AM  23266.72471683  .00001360  00000+0  10352-3 0  9999,2 51803  53.2191  60.2440 0001298  85.9794 274.1347 15.08838111 88356,15.08838111,0.0001298,LEO
51804,STARLINK-3601,2022,95.44,260.0,+,53.22,Active,1,LEO,USA,USA,Commercial,Communications,Falcon,1 51804U 22017AN  23266.67135057  .00002198  00000+0  15613-3 0  9991,2 51804  53.2185  40.4848 0001281  87.4697 272.6441 15.08847116 88682,15.08847116,0.0001281,LEO
51805,STARLINK-3605,2022,95.44,260.0,+,53.22,Active,1,LEO,USA,USA,Commercial,Communications,Falcon,1 51805U 22017AP  23266.54255996  .00009209  00000+0  59592-3 0  9997,2 51805  53.2173  41.1346 0001125  85.5383 274.5737 15.08841731 88652,15.08841731,0.0001125,LEO
51806,STARLINK-3581,2022,95.44,260.0,+,53.22,Active,1,LEO,USA,USA,Commercial,Communications,Falcon,1 51806U 22017AQ  23266.54899369  .00001205  00000+0  93765-4 0  9995,2 51806  53.2164  51.0291 0001274  86.2845 273.8293 15.08842968 88379,15.08842968,0.0001274,LEO
51807,STARLINK-3606,2022,95.44,260.0,+,53.22,Active,1,LEO,USA,USA,Commercial,Communications,Falcon,1 51807U 22017AR  23266.55635426  .00004286  00000+0  28716-3 0  9994,2 51807  53.2161  50.9961 0001406  82.4300 277.6852 15.08844899 88525,15.08844899,0.0001406,LEO
51808,STARLINK-3609,2022,95.44,260.0,+,53.22,Active,1,LEO,USA,USA,Commercial,Communications,Falcon,1 51808U 22017AS  23266.54163136  .00001611  00000+0  11926-3 0  9992,2 51808  53.2173  51.0591 0001457 105.3248 254.7906 15.08845153 88375,15.08845153,0.0001457,LEO
51809,STARLINK-3607,2022,95.44,260.0,+,53.22,Active,1,LEO,USA,USA,Commercial,Communications,Falcon,1 51809U 22017AT  23266.68611107  .00002306  00000+0  16286-3 0  9990,2 51809  53.2172  50.4252 0001264  81.1632 278.9503 15.08848250 88491,15.0884825,0.0001264,LEO
51810,STARLINK-3613,2022,95.44,260.0,+,53.22,Active,1,LEO,USA,USA,Commercial,Communications,Falcon,1 51810U 22017AU  23266.52049985  .00001030  00000+0  82776-4 0  9995,2 51810  53.2177  41.3814 0001347  74.6415 285.4726 15.08845227 88603,15.08845227,0.0001347,LEO
51811,STARLINK-3569,2022,95.44,260.0,+,53.22,Active,1,LEO,USA,USA,Commercial,Communications,Falcon,1 51811U 22017AV  23266.54531199  .00009553  00000+0  61737-3 0  9992,2 51811  53.2167  51.0463 0000964 100.8146 259.2955 15.08845657 88372,15.08845657,9.64e-05,LEO
